From: horizons@ssd.jpl.nasa.gov (Horizons Ephemeris System)
Subject: [Horizons] SMALL BODY #C(500@10)_T(103P/Hartley 2) (1/1)
Date: March 1, 2021 at 1:22:54 PM PST

Automated mail xmit by MAIL_REQUEST, PID= 2301 Mon Mar  1 13:22:54 2021
++++++++++++++++++++++++++++++++ (part 1 of 1)  +++++++++++++++++++++++++++++++
*******************************************************************************
JPL/HORIZONS                   103P/Hartley 2              2021-Mar-01 13:22:53
Rec #:90000929 (+COV) Soln.date: 2019-May-15_16:14:27   # obs: 6097 (2004-2019)

IAU76/J2000 helio. ecliptic osc. elements (au, days, deg., period=Julian yrs):

 EPOCH=  2455530.5 ! 2010-Nov-30.0000000 (TDB)    RMSW= n.a.
  EC= .6948883789281467   QR= 1.058679098998275   TP= 2455497.7653158414
  OM= 219.7583231740731   W= 181.2099869444809    IN= 13.61926973311054
  A= 3.46980916452526     MA= 4.991761696635813   ADIST= 5.880939230052245
  PER= 6.4634828229101    N= .152491514           ANGMOM= .023042742
  DAN= 5.87795            DDN= 1.05878            L= 40.9343071
  B= -.2848956            MOID= .0666239          TP= 2010-Oct-28.2653158414

Comet physical (GM= km^3/s^2; RAD= km):
  GM= n.a.                RAD= .800
  M1=  14.2     M2=  n.a.     k1=  15.    k2= n.a.     PHCOF= n.a.

Comet non-gravitational force model (AMRAT=m^2/kg;A1-A3=au/d^2;DT=days;R0=au):
  AMRAT=  0.                                      DT=  0.
  A1= 7.814731448889E-10  A2= 2.539602294564E-10  A3= 0.
Standard model:
  ALN=  .1112620426   NK=  4.6142   NM=  2.15     NN=  5.093    R0=  2.808

COMET comments 
1: soln ref.= JPL#K173/7, data arc: 2004-09-20 to 2019-04-08
2: k1=15.;
*******************************************************************************


*******************************************************************************
Ephemeris / MAIL_REQUEST Mon Mar  1 13:22:54 2021 Pasadena, USA  / Horizons
*******************************************************************************
Target body name: 103P/Hartley 2                  {source: JPL#K173/7}
Center body name: Sun (10)                        {source: DE431}
Center-site name: BODY CENTER
*******************************************************************************
Start time      : A.D. 1990-Jan-01 00:00:00.0000 TDB
Stop  time      : A.D. 2020-Dec-31 00:00:00.0000 TDB
Step-size       : 10080 minutes
*******************************************************************************
Center geodetic : 0.00000000,0.00000000,0.0000000 {E-lon(deg),Lat(deg),Alt(km)}
Center cylindric: 0.00000000,0.00000000,0.0000000 {E-lon(deg),Dxy(km),Dz(km)}
Center radii    : 696000.0 x 696000.0 x 696000.0 k{Equator, meridian, pole}    
Small perturbers: Yes                             {source: SB431-N16}
Output units    : AU-D
Output type     : GEOMETRIC cartesian states
Output format   : 6 (LT, range, and range-rate)
Reference frame : Ecliptic of J2000.0
*******************************************************************************
Initial IAU76/J2000 heliocentric ecliptic osculating elements (au, days, deg.):
 EPOCH=  2455530.5 ! 2010-Nov-30.0000000 (TDB)    RMSW= n.a.                  
  EC= .6948883789281467   QR= 1.058679098998275   TP= 2455497.7653158414      
  OM= 219.7583231740731   W= 181.2099869444809    IN= 13.61926973311054       
 Equivalent ICRF heliocentric equatorial cartesian coordinates (au, au/d):
  X= 2.636914917214561E-01  Y= 1.082396158237923E+00  Z= 2.888826367434837E-01
 VX=-1.804006200818953E-02 VY= 1.016160967469467E-02 VZ=-4.938988983608709E-04
Comet physical (GM= km^3/s^2; RAD= km):                                        
  GM= n.a.                RAD= .800                                           
  M1=  14.2     M2=  n.a.     k1=  15.    k2= n.a.     PHCOF= n.a.            
Comet non-gravitational force model (AMRAT=m^2/kg;A1-A3=au/d^2;DT=days;R0=au): 
  AMRAT=  0.                                      DT=  0.                     
  A1= 7.814731448889E-10  A2= 2.539602294564E-10  A3= 0.                      
Standard model:                                                               
  ALN=  .1112620426   NK=  4.6142   NM=  2.15     NN=  5.093    R0=  2.808    
*******************************************************************************
           JDTDB,            Calendar Date (TDB),                     LT,                     RG,                     RR,
**************************************************************************************************************************
$$SOE
2451280.500000000, A.D. 1999-Apr-12 00:00:00.0000,  2.486176768392368E-02,  4.304681633265265E+00,  4.855769634549280E-03,
2451287.500000000, A.D. 1999-Apr-19 00:00:00.0000,  2.505674677220296E-02,  4.338441215884538E+00,  4.789938224997399E-03,
2451294.500000000, A.D. 1999-Apr-26 00:00:00.0000,  2.524907795981542E-02,  4.371742328715499E+00,  4.724775532971638E-03,
2451301.500000000, A.D. 1999-May-03 00:00:00.0000,  2.543878795410592E-02,  4.404589595991560E+00,  4.660265420891859E-03,
2451308.500000000, A.D. 1999-May-10 00:00:00.0000,  2.562590282056883E-02,  4.436987530813170E+00,  4.596392268089267E-03,
2451315.500000000, A.D. 1999-May-17 00:00:00.0000,  2.581044800167780E-02,  4.468940538408084E+00,  4.533140822440675E-03,
2451322.500000000, A.D. 1999-May-24 00:00:00.0000,  2.599244832130129E-02,  4.500452916895886E+00,  4.470495577406006E-03,
2451329.500000000, A.D. 1999-May-31 00:00:00.0000,  2.617192795813860E-02,  4.531528852688590E+00,  4.408440165854332E-03,
2451336.500000000, A.D. 1999-Jun-07 00:00:00.0000,  2.634891044054096E-02,  4.562172419593921E+00,  4.346959310964447E-03,
2451343.500000000, A.D. 1999-Jun-14 00:00:00.0000,  2.652341873358635E-02,  4.592387593891875E+00,  4.286040247520634E-03,
2451350.500000000, A.D. 1999-Jun-21 00:00:00.0000,  2.669547530097361E-02,  4.622178265051331E+00,  4.225670591300282E-03,
2451357.500000000, A.D. 1999-Jun-28 00:00:00.0000,  2.686510209624999E-02,  4.651548234211170E+00,  4.165837523836590E-03,
2451364.500000000, A.D. 1999-Jul-05 00:00:00.0000,  2.703232055245647E-02,  4.680501212387394E+00,  4.106528179378869E-03,
2451371.500000000, A.D. 1999-Jul-12 00:00:00.0000,  2.719715158628436E-02,  4.709040821192839E+00,  4.047729903651822E-03,
2451378.500000000, A.D. 1999-Jul-19 00:00:00.0000,  2.735961560865409E-02,  4.737170594668827E+00,  3.989430337419843E-03,
2451385.500000000, A.D. 1999-Jul-26 00:00:00.0000,  2.751973253728794E-02,  4.764893981462060E+00,  3.931617444928804E-03,
2451392.500000000, A.D. 1999-Aug-02 00:00:00.0000,  2.767752181017685E-02,  4.792214347156346E+00,  3.874279531691255E-03,
2451399.500000000, A.D. 1999-Aug-09 00:00:00.0000,  2.783300239920536E-02,  4.819134976631662E+00,  3.817405219367264E-03,
2451406.500000000, A.D. 1999-Aug-16 00:00:00.0000,  2.798619281874512E-02,  4.845659075552086E+00,  3.760983161040142E-03,
2451413.500000000, A.D. 1999-Aug-23 00:00:00.0000,  2.813711111118454E-02,  4.871789767860334E+00,  3.705001189859796E-03,
2451420.500000000, A.D. 1999-Aug-30 00:00:00.0000,  2.828577480696288E-02,  4.897530088857869E+00,  3.649446441701306E-03,
2451427.500000000, A.D. 1999-Sep-06 00:00:00.0000,  2.843220094841679E-02,  4.922882989333813E+00,  3.594308024840892E-03,
2451434.500000000, A.D. 1999-Sep-13 00:00:00.0000,  2.857640618093017E-02,  4.947851351347046E+00,  3.539576790351339E-03,
2451441.500000000, A.D. 1999-Sep-20 00:00:00.0000,  2.871840677781780E-02,  4.972437992534677E+00,  3.485243315397993E-03,
2451448.500000000, A.D. 1999-Sep-27 00:00:00.0000,  2.885821862227821E-02,  4.996645662987282E+00,  3.431297795176997E-03,
2451455.500000000, A.D. 1999-Oct-04 00:00:00.0000,  2.899585720028063E-02,  5.020477044017317E+00,  3.377730431941933E-03,
2451462.500000000, A.D. 1999-Oct-11 00:00:00.0000,  2.913133760527312E-02,  5.043934748974299E+00,  3.324531623367606E-03,
2451469.500000000, A.D. 1999-Oct-18 00:00:00.0000,  2.926467454775073E-02,  5.067021324901492E+00,  3.271692035340912E-03,
2451476.500000000, A.D. 1999-Oct-25 00:00:00.0000,  2.939588236700954E-02,  5.089739254571044E+00,  3.219202645581161E-03,
2451483.500000000, A.D. 1999-Nov-01 00:00:00.0000,  2.952497504449760E-02,  5.112090958795651E+00,  3.167054776422202E-03,
2451490.500000000, A.D. 1999-Nov-08 00:00:00.0000,  2.965196621714214E-02,  5.134078798736058E+00,  3.115240030100015E-03,
2451497.500000000, A.D. 1999-Nov-15 00:00:00.0000,  2.977686918076550E-02,  5.155705076492551E+00,  3.063749783939921E-03,
2451504.500000000, A.D. 1999-Nov-22 00:00:00.0000,  2.989969686164870E-02,  5.176972030181299E+00,  3.012574305081935E-03,
2451511.500000000, A.D. 1999-Nov-29 00:00:00.0000,  3.002046178678046E-02,  5.197881828783172E+00,  2.961704091996184E-03,
2451518.500000000, A.D. 1999-Dec-06 00:00:00.0000,  3.013917614871189E-02,  5.218436583372946E+00,  2.911132141974249E-03,
2451525.500000000, A.D. 1999-Dec-13 00:00:00.0000,  3.025585188235793E-02,  5.238638360417088E+00,  2.860852305130228E-03,
2451532.500000000, A.D. 1999-Dec-20 00:00:00.0000,  3.037050066555916E-02,  5.258489181871012E+00,  2.810857987916329E-03,
2451539.500000000, A.D. 1999-Dec-27 00:00:00.0000,  3.048313390413960E-02,  5.277991022591933E+00,  2.761142393140897E-03,
2451546.500000000, A.D. 2000-Jan-03 00:00:00.0000,  3.059376273023119E-02,  5.297145810048743E+00,  2.711698808040751E-03,
2451553.500000000, A.D. 2000-Jan-10 00:00:00.0000,  3.070239800827328E-02,  5.315955425360805E+00,  2.662520711825770E-03,
2451560.500000000, A.D. 2000-Jan-17 00:00:00.0000,  3.080905034360085E-02,  5.334421704784948E+00,  2.613601811363124E-03,
2451567.500000000, A.D. 2000-Jan-24 00:00:00.0000,  3.091373009210249E-02,  5.352546441387696E+00,  2.564936063046072E-03,
2451574.500000000, A.D. 2000-Jan-31 00:00:00.0000,  3.101644737048843E-02,  5.370331386823127E+00,  2.516517671423553E-03,
2451581.500000000, A.D. 2000-Feb-07 00:00:00.0000,  3.111721206358349E-02,  5.387778252595603E+00,  2.468340888396648E-03,
